HELIOS 2A               
1 28492U 04049A   22219.45302966  .00000428  00000+0  46974-4 0  9990
2 28492  98.2350 164.8660 0013086 273.9441  86.0288 14.93241424942734
CFESAT                  
1 30777U 07006F   22219.33515199  .00051557  00000+0  55712-3 0  9994
2 30777  35.4188 320.8421 0004657 142.1429 217.9634 15.62494781857032
SPIRALE A               
1 33751U 09008C   22218.51910086  .00000077  00000+0  29181-3 0  9998
2 33751   2.0036 208.7514 5436644 339.2164   5.1809  4.58855497197116
SPIRALE B               
1 33752U 09008D   22217.80121295  .00005154  00000+0  89248-3 0  9997
2 33752   2.0838  85.4403 6868105 207.7665  86.8256  2.82545054126474
SAPPHIRE                
1 39088U 13009C   22219.48101511  .00000048  00000+0  32090-4 0  9997
2 39088  98.4260  53.9613 0012385 121.9027 238.3364 14.34314013494456
